[{"OBJECT_NAME":"STARLINK-34737","OBJECT_ID":"2025-158B","EPOCH":"2026-03-09T14:50:30.416640","MEAN_MOTION":15.056456,"ECCENTRICITY":0.0002052,"INCLINATION":97.6034,"RA_OF_ASC_NODE":293.9846,"ARG_OF_PERICENTER":78.4884,"MEAN_ANOMALY":281.6573,"EPHEMERIS_TYPE":0,"CLASSIFICATION_TYPE":"U","NORAD_CAT_ID":64933,"ELEMENT_SET_NO":999,"REV_AT_EPOCH":3534,"BSTAR":-0.00047628,"MEAN_MOTION_DOT":-6.926e-5,"MEAN_MOTION_DDOT":0},{"OBJECT_NAME":"FENGYUN 1C DEB","OBJECT_ID":"1999-025EMJ","EPOCH":"2026-03-09T03:39:09.279936","MEAN_MOTION":15.01174269,"ECCENTRICITY":0.00472088,"INCLINATION":98.7318,"RA_OF_ASC_NODE":38.98,"ARG_OF_PERICENTER":180.721,"MEAN_ANOMALY":242.109,"EPHEMERIS_TYPE":0,"CLASSIFICATION_TYPE":"U","NORAD_CAT_ID":37717,"ELEMENT_SET_NO":999,"REV_AT_EPOCH":90691,"BSTAR":0.0034859906,"MEAN_MOTION_DOT":0.00045969,"MEAN_MOTION_DDOT":0}]
